{
  "type": "FeatureCollection",
  "features": [
    {
      "type": "Feature",
      "properties": {
        "norad_id": 66807,
        "name": "STARLINK-36000",
        "group": "last-30-days",
        "lat": 30.413354151399965,
        "lon": -100.94972452730082,
        "alt_km": 346.24959344443414,
        "timestamp": "2025-12-17T23:38:05.625243+00:00",
        "meta_object_name": "STARLINK-36000",
        "meta_object_id": "2025-278S",
        "meta_epoch": "2025-12-17T14:00:03.000384",
        "meta_mean_motion": 15.74753245,
        "meta_eccentricity": 0.00017956,
        "meta_inclination": 42.999,
        "meta_ra_of_asc_node": 222.4341,
        "meta_arg_of_pericenter": 260.6995,
        "meta_mean_anomaly": 30.0179,
        "meta_ephemeris_type": 0,
        "meta_classification_type": "U",
        "meta_norad_cat_id": 66807,
        "meta_element_set_no": 999,
        "meta_rev_at_epoch": 379,
        "meta_bstar": -0.01396151,
        "meta_mean_motion_dot": -0.01849674,
        "meta_mean_motion_ddot": 0,
        "tle_line1": "1 66807U 25278S   25351.58336806 -.01849674  00000+0 -13962-1 0  9998",
        "tle_line2": "2 66807  42.9990 222.4341 0001795 260.6995  30.0179 15.74753245  3791"
      },
      "geometry": {
        "type": "Point",
        "coordinates": [
          -100.94972452730082,
          30.413354151399965
        ]
      }
    },
    {
      "type": "Feature",
      "properties": {
        "norad_id": 66808,
        "name": "STARLINK-36071",
        "group": "last-30-days",
        "lat": 31.415737538235213,
        "lon": -99.04611293909258,
        "alt_km": 346.14214139200976,
        "timestamp": "2025-12-17T23:38:05.625253+00:00",
        "meta_object_name": "STARLINK-36071",
        "meta_object_id": "2025-278T",
        "meta_epoch": "2025-12-17T14:00:03.000384",
        "meta_mean_motion": 15.7471868,
        "meta_eccentricity": 0.00018302,
        "meta_inclination": 42.9988,
        "meta_ra_of_asc_node": 222.4292,
        "meta_arg_of_pericenter": 260.2143,
        "meta_mean_anomaly": 32.446,
        "meta_ephemeris_type": 0,
        "meta_classification_type": "U",
        "meta_norad_cat_id": 66808,
        "meta_element_set_no": 999,
        "meta_rev_at_epoch": 373,
        "meta_bstar": -0.013678606,
        "meta_mean_motion_dot": -0.01814588,
        "meta_mean_motion_ddot": 0,
        "tle_line1": "1 66808U 25278T   25351.58336806 -.01814588  00000+0 -13679-1 0  9990",
        "tle_line2": "2 66808  42.9988 222.4292 0001830 260.2143  32.4460 15.74718680  3732"
      },
      "geometry": {
        "type": "Point",
        "coordinates": [
          -99.04611293909258,
          31.415737538235213
        ]
      }
    },
    {
      "type": "Feature",
      "properties": {
        "norad_id": 66809,
        "name": "STARLINK-35979",
        "group": "last-30-days",
        "lat": 34.24014629859027,
        "lon": -93.09406245399008,
        "alt_km": 345.5931184862184,
        "timestamp": "2025-12-17T23:38:05.625263+00:00",
        "meta_object_name": "STARLINK-35979",
        "meta_object_id": "2025-278U",
        "meta_epoch": "2025-12-17T14:00:03.000384",
        "meta_mean_motion": 15.74763701,
        "meta_eccentricity": 0.00015957,
        "meta_inclination": 42.9986,
        "meta_ra_of_asc_node": 222.4139,
        "meta_arg_of_pericenter": 261.0008,
        "meta_mean_anomaly": 37.3738,
        "meta_ephemeris_type": 0,
        "meta_classification_type": "U",
        "meta_norad_cat_id": 66809,
        "meta_element_set_no": 999,
        "meta_rev_at_epoch": 373,
        "meta_bstar": -0.014006401,
        "meta_mean_motion_dot": -0.01855411,
        "meta_mean_motion_ddot": 0,
        "tle_line1": "1 66809U 25278U   25351.58336806 -.01855411  00000+0 -14006-1 0  9996",
        "tle_line2": "2 66809  42.9986 222.4139 0001595 261.0008  37.3738 15.74763701  3734"
      },
      "geometry": {
        "type": "Point",
        "coordinates": [
          -93.09406245399008,
          34.24014629859027
        ]
      }
    },
    {
      "type": "Feature",
      "properties": {
        "norad_id": 66810,
        "name": "STARLINK-36046",
        "group": "last-30-days",
        "lat": 32.38721781464058,
        "lon": -97.10651292324383,
        "alt_km": 345.9908373920016,
        "timestamp": "2025-12-17T23:38:05.625272+00:00",
        "meta_object_name": "STARLINK-36046",
        "meta_object_id": "2025-278V",
        "meta_epoch": "2025-12-17T14:00:03.000384",
        "meta_mean_motion": 15.74772477,
        "meta_eccentricity": 0.00017542,
        "meta_inclination": 42.9989,
        "meta_ra_of_asc_node": 222.4245,
        "meta_arg_of_pericenter": 258.1887,
        "meta_mean_anomaly": 36.3464,
        "meta_ephemeris_type": 0,
        "meta_classification_type": "U",
        "meta_norad_cat_id": 66810,
        "meta_element_set_no": 999,
        "meta_rev_at_epoch": 350,
        "meta_bstar": -0.014096449,
        "meta_mean_motion_dot": -0.0186654,
        "meta_mean_motion_ddot": 0,
        "tle_line1": "1 66810U 25278V   25351.58336806 -.01866540  00000+0 -14096-1 0  9992",
        "tle_line2": "2 66810  42.9989 222.4245 0001754 258.1887  36.3464 15.74772477  3506"
      },
      "geometry": {
        "type": "Point",
        "coordinates": [
          -97.10651292324383,
          32.38721781464058
        ]
      }
    },
    {
      "type": "Feature",
      "properties": {
        "norad_id": 66811,
        "name": "STARLINK-36045",
        "group": "last-30-days",
        "lat": 33.32920408326696,
        "lon": -95.12337578849022,
        "alt_km": 345.84786462708144,
        "timestamp": "2025-12-17T23:38:05.625283+00:00",
        "meta_object_name": "STARLINK-36045",
        "meta_object_id": "2025-278W",
        "meta_epoch": "2025-12-17T14:00:03.000384",
        "meta_mean_motion": 15.74767307,
        "meta_eccentricity": 0.00018144,
        "meta_inclination": 42.9989,
        "meta_ra_of_asc_node": 222.4193,
        "meta_arg_of_pericenter": 260.621,
        "meta_mean_anomaly": 35.8283,
        "meta_ephemeris_type": 0,
        "meta_classification_type": "U",
        "meta_norad_cat_id": 66811,
        "meta_element_set_no": 999,
        "meta_rev_at_epoch": 373,
        "meta_bstar": -0.014004529,
        "meta_mean_motion_dot": -0.01855647,
        "meta_mean_motion_ddot": 0,
        "tle_line1": "1 66811U 25278W   25351.58336806 -.01855647  00000+0 -14005-1 0  9999",
        "tle_line2": "2 66811  42.9989 222.4193 0001814 260.6210  35.8283 15.74767307  3738"
      },
      "geometry": {
        "type": "Point",
        "coordinates": [
          -95.12337578849022,
          33.32920408326696
        ]
      }
    },
    {
      "type": "Feature",
      "properties": {
        "norad_id": 66812,
        "name": "STARLINK-36054",
        "group": "last-30-days",
        "lat": 35.11618536428898,
        "lon": -91.02213073297955,
        "alt_km": 345.60893539702374,
        "timestamp": "2025-12-17T23:38:05.625292+00:00",
        "meta_object_name": "STARLINK-36054",
        "meta_object_id": "2025-278X",
        "meta_epoch": "2025-12-17T14:00:03.000384",
        "meta_mean_motion": 15.74760861,
        "meta_eccentricity": 0.00018509,
        "meta_inclination": 42.9986,
        "meta_ra_of_asc_node": 222.4095,
        "meta_arg_of_pericenter": 262.882,
        "meta_mean_anomaly": 37.4101,
        "meta_ephemeris_type": 0,
        "meta_classification_type": "U",
        "meta_norad_cat_id": 66812,
        "meta_element_set_no": 999,
        "meta_rev_at_epoch": 373,
        "meta_bstar": -0.01398492,
        "meta_mean_motion_dot": -0.01852963,
        "meta_mean_motion_ddot": 0,
        "tle_line1": "1 66812U 25278X   25351.58336806 -.01852963  00000+0 -13985-1 0  9994",
        "tle_line2": "2 66812  42.9986 222.4095 0001850 262.8820  37.4101 15.74760861  3733"
      },
      "geometry": {
        "type": "Point",
        "coordinates": [
          -91.02213073297955,
          35.11618536428898
        ]
      }
    },
    {
      "type": "Feature",
      "properties": {
        "norad_id": 66813,
        "name": "STARLINK-36042",
        "group": "last-30-days",
        "lat": 35.95563453020978,
        "lon": -88.90794067944903,
        "alt_km": 345.47968442777074,
        "timestamp": "2025-12-17T23:38:05.625302+00:00",
        "meta_object_name": "STARLINK-36042",
        "meta_object_id": "2025-278Y",
        "meta_epoch": "2025-12-17T14:00:03.000384",
        "meta_mean_motion": 15.7476472,
        "meta_eccentricity": 0.00018124,
        "meta_inclination": 42.9986,
        "meta_ra_of_asc_node": 222.4043,
        "meta_arg_of_pericenter": 262.2872,
        "meta_mean_anomaly": 39.9184,
        "meta_ephemeris_type": 0,
        "meta_classification_type": "U",
        "meta_norad_cat_id": 66813,
        "meta_element_set_no": 999,
        "meta_rev_at_epoch": 373,
        "meta_bstar": -0.014008589,
        "meta_mean_motion_dot": -0.01855929,
        "meta_mean_motion_ddot": 0,
        "tle_line1": "1 66813U 25278Y   25351.58336806 -.01855929  00000+0 -14009-1 0  9998",
        "tle_line2": "2 66813  42.9986 222.4043 0001812 262.2872  39.9184 15.74764720  3732"
      },
      "geometry": {
        "type": "Point",
        "coordinates": [
          -88.90794067944903,
          35.95563453020978
        ]
      }
    }
  ]
}